TRITON-1                
1 39427U 13066M   26160.66451947  .00001787  00000+0  21918-3 0  9994
2 39427  97.8248  70.6422 0088313 258.8540 100.2734 14.81680726672972
GOMX-1                  
1 39430U 13066Q   26160.62751692  .00001871  00000+0  28490-3 0  9990
2 39430  97.6494   1.5673 0130146 101.5421 260.0431 14.69431873668801
CUBEBUG-2 (LO-74)       
1 39440U 13066AA  26160.42661912  .00003357  00000+0  31222-3 0  9992
2 39440  97.8902 109.3723 0059152  54.2261 306.4438 14.93700353675836
NEE-02 KRYSAOR          
1 39441U 13066AB  26160.33408551  .00001823  00000+0  20357-3 0  9994
2 39441  97.8886  99.6051 0067736  95.3375 265.5574 14.86584933675036
FUNCUBE-1 (AO-73)       
1 39444U 13066AE  26160.43303962  .00004901  00000+0  30669-3 0  9995
2 39444  97.8268 131.7174 0034858 227.8994 131.9269 15.09396559678496
UWE-3                   
1 39446U 13066AG  26160.12782108  .00003499  00000+0  30256-3 0  9999
2 39446  97.8686 116.1479 0048769 348.2293  11.7784 14.96959057676378
SMDC ONE 2.4            
1 39469U 13072H   26160.29891061  .00007746  00000+0  30300-3 0  9997
2 39469 120.4934 321.6312 0144185  10.6177 349.7893 15.18033237116632
COSMOS 2488 (RODNIK-S 7)
1 39483U 13076A   26160.63220236  .00000020  00000+0  74416-4 0  9990
2 39483  82.4835 173.4022 0020748 110.8572 249.4732 12.42905444564958
COSMOS 2489 (RODNIK-S 8)
1 39484U 13076B   26160.60724312  .00000022  00000+0  89684-4 0  9997
2 39484  82.4872 174.7941 0022592 110.9577 249.3923 12.42879363565007
COSMOS 2490 (RODNIK-S 9)
1 39485U 13076C   26160.57912072  .00000019  00000+0  67546-4 0  9995
2 39485  82.4817 172.8823 0022565 125.9699 234.3477 12.42877752564935
KAZEOSAT 1              
1 39731U 14024A   26160.59753157  .00000257  00000+0  91298-4 0  9997
2 39731  98.3202 233.2335 0001469  74.9737 285.1615 14.42077703637466
COSMOS 2496 (RODNIK-S *)
1 39761U 14028A   26160.61715756  .00000109  00000+0  71748-3 0  9993
2 39761  82.4444 113.4723 0021265  94.4439 265.9071 12.42878617546577
COSMOS 2497 (RODNIK-S *)
1 39762U 14028B   26160.59253473  .00000090  00000+0  57375-3 0  9993
2 39762  82.4492 115.1746 0021858  89.7670 270.5915 12.42894153546579
COSMOS 2498 (RODNIK-S *)
1 39763U 14028C   26160.57066205  .00000038  00000+0  20168-3 0  9999
2 39763  82.4453 113.6787 0022546  89.4418 270.9245 12.42979978546600
HODOYOSHI-4             
1 40011U 14033B   26160.57039039  .00000346  00000+0  43129-4 0  9993
2 40011  97.5458 345.7610 0023150 334.6327  25.3752 14.88108823647678
UNISAT-6                
1 40012U 14033C   26160.40122271  .00002405  00000+0  26157-3 0  9996
2 40012  97.7869 313.2514 0046431  94.2161 266.4364 14.88204191645009
DEIMOS-2                
1 40013U 14033D   26160.61342436  .00002019  00000+0  19597-3 0  9998
2 40013  97.5841  35.3679 0002030  59.7443 300.3978 14.93709534636598
BUGSAT-1 (TITA)         
1 40014U 14033E   26160.57547074  .00004625  00000+0  24598-3 0  9991
2 40014  98.0419 252.6796 0027450 204.3489 155.6447 15.15503551654689
SAUDISAT 4              
1 40016U 14033G   26160.40905224  .00000673  00000+0  95158-4 0  9990
2 40016  97.7574 306.8134 0046229  98.5110 262.1345 14.79533907644920
APRIZESAT 9             
1 40018U 14033J   26160.33415850  .00000594  00000+0  94845-4 0  9999
2 40018  97.9050 293.7252 0065171 224.6876 134.9071 14.74203919642401
BRITE-CA1 (TORONTO)     
1 40020U 14033L   26160.36004237  .00000618  00000+0  10079-3 0  9991
2 40020  97.9729 289.4327 0077421 302.5173  56.8569 14.72665836641062
